KUIPER-00035            
1 63748U 25088AA  25231.25003472 -.00018203  00000+0 -23693-2 0  9997
2 63748  51.9005 289.2861 0006247 126.7200 216.2284 14.79841860 17521
KUIPER-00037            
1 63749U 25088AB  25231.25003472 -.00045918  00000+0 -60131-2 0  9999
2 63749  51.8995 288.2540 0006350  60.3729 275.3118 14.80070568 18328
KUIPER-00038            
1 63750U 25088AC  25231.25003472 -.01825782  00000+0 -97257-1 0  9995
2 63750  51.8822 276.7304 0005927 116.6409 191.3508 15.17994652 17484
KUIPER-00039            
1 64500U 25134A   25230.90125268  .00036515  00000+0  10616-2 0  9990
2 64500  51.8691  59.0048 0009084 299.5598  60.4482 15.35069348  9457
KUIPER-00040            
1 64501U 25134B   25231.25003472 -.00613930  00000+0 -45692-1 0  9997
2 64501  51.8908  61.2581 0015016 321.9930 348.4391 15.04693497  9450
KUIPER-00041            
1 64502U 25134C   25231.25003472 -.00070239  00000+0 -57627-2 0  9999
2 64502  51.8865  61.9638 0012935 326.3105 311.8827 14.98973210  9435
KUIPER-00042            
1 64503U 25134D   25230.92916990 -.00090174  00000+0 -48914-2 0  9990
2 64503  51.8783  61.3765 0014038 315.7378  44.2475 15.14327735  9429
KUIPER-00043            
1 64504U 25134E   25230.79826982  .00021044  00000+0  73011-3 0  9992
2 64504  51.8740  59.8383 0008338 314.1151  45.9145 15.29721045  9890
