<?xml version="1.0" encoding="UTF-8"?>
<ndm xmlns:xsi="http://www.w3.org/2001/XMLSchema-instance" xsi:noNamespaceSchemaLocation="https://sanaregistry.org/r/ndmxml_unqualified/ndmxml-2.0.0-master-2.0.xsd">
<omm id="CCSDS_OMM_VERS" version="2.0">
<header><CREATION_DATE/><ORIGINATOR/></header><body><segment><metadata><OBJECT_NAME>KUIPER-00035</OBJECT_NAME><OBJECT_ID>2025-088AA</OBJECT_ID><CENTER_NAME>EARTH</CENTER_NAME><REF_FRAME>TEME</REF_FRAME><TIME_SYSTEM>UTC</TIME_SYSTEM><MEAN_ELEMENT_THEORY>SGP4</MEAN_ELEMENT_THEORY></metadata><data><meanElements><EPOCH>2025-08-19T06:00:02.999808</EPOCH><MEAN_MOTION>14.79841860</MEAN_MOTION><ECCENTRICITY>.0006247</ECCENTRICITY><INCLINATION>51.9005</INCLINATION><RA_OF_ASC_NODE>289.2861</RA_OF_ASC_NODE><ARG_OF_PERICENTER>126.7200</ARG_OF_PERICENTER><MEAN_ANOMALY>216.2284</MEAN_ANOMALY></meanElements><tleParameters><EPHEMERIS_TYPE>0</EPHEMERIS_TYPE><CLASSIFICATION_TYPE>U</CLASSIFICATION_TYPE><NORAD_CAT_ID>63748</NORAD_CAT_ID><ELEMENT_SET_NO>999</ELEMENT_SET_NO><REV_AT_EPOCH>1752</REV_AT_EPOCH><BSTAR>-.23693E-2</BSTAR><MEAN_MOTION_DOT>-.18203E-3</MEAN_MOTION_DOT><MEAN_MOTION_DDOT>0</MEAN_MOTION_DDOT></tleParameters></data></segment></body></omm>
<omm id="CCSDS_OMM_VERS" version="2.0">
<header><CREATION_DATE/><ORIGINATOR/></header><body><segment><metadata><OBJECT_NAME>KUIPER-00037</OBJECT_NAME><OBJECT_ID>2025-088AB</OBJECT_ID><CENTER_NAME>EARTH</CENTER_NAME><REF_FRAME>TEME</REF_FRAME><TIME_SYSTEM>UTC</TIME_SYSTEM><MEAN_ELEMENT_THEORY>SGP4</MEAN_ELEMENT_THEORY></metadata><data><meanElements><EPOCH>2025-08-19T06:00:02.999808</EPOCH><MEAN_MOTION>14.80070568</MEAN_MOTION><ECCENTRICITY>.000635</ECCENTRICITY><INCLINATION>51.8995</INCLINATION><RA_OF_ASC_NODE>288.2540</RA_OF_ASC_NODE><ARG_OF_PERICENTER>60.3729</ARG_OF_PERICENTER><MEAN_ANOMALY>275.3118</MEAN_ANOMALY></meanElements><tleParameters><EPHEMERIS_TYPE>0</EPHEMERIS_TYPE><CLASSIFICATION_TYPE>U</CLASSIFICATION_TYPE><NORAD_CAT_ID>63749</NORAD_CAT_ID><ELEMENT_SET_NO>999</ELEMENT_SET_NO><REV_AT_EPOCH>1832</REV_AT_EPOCH><BSTAR>-.60131E-2</BSTAR><MEAN_MOTION_DOT>-.45918E-3</MEAN_MOTION_DOT><MEAN_MOTION_DDOT>0</MEAN_MOTION_DDOT></tleParameters></data></segment></body></omm>
<omm id="CCSDS_OMM_VERS" version="2.0">
<header><CREATION_DATE/><ORIGINATOR/></header><body><segment><metadata><OBJECT_NAME>KUIPER-00038</OBJECT_NAME><OBJECT_ID>2025-088AC</OBJECT_ID><CENTER_NAME>EARTH</CENTER_NAME><REF_FRAME>TEME</REF_FRAME><TIME_SYSTEM>UTC</TIME_SYSTEM><MEAN_ELEMENT_THEORY>SGP4</MEAN_ELEMENT_THEORY></metadata><data><meanElements><EPOCH>2025-08-19T06:00:02.999808</EPOCH><MEAN_MOTION>15.17994652</MEAN_MOTION><ECCENTRICITY>.0005927</ECCENTRICITY><INCLINATION>51.8822</INCLINATION><RA_OF_ASC_NODE>276.7304</RA_OF_ASC_NODE><ARG_OF_PERICENTER>116.6409</ARG_OF_PERICENTER><MEAN_ANOMALY>191.3508</MEAN_ANOMALY></meanElements><tleParameters><EPHEMERIS_TYPE>0</EPHEMERIS_TYPE><CLASSIFICATION_TYPE>U</CLASSIFICATION_TYPE><NORAD_CAT_ID>63750</NORAD_CAT_ID><ELEMENT_SET_NO>999</ELEMENT_SET_NO><REV_AT_EPOCH>1748</REV_AT_EPOCH><BSTAR>-.97257E-1</BSTAR><MEAN_MOTION_DOT>-.1825782E-1</MEAN_MOTION_DOT><MEAN_MOTION_DDOT>0</MEAN_MOTION_DDOT></tleParameters></data></segment></body></omm>
<omm id="CCSDS_OMM_VERS" version="2.0">
<header><CREATION_DATE/><ORIGINATOR/></header><body><segment><metadata><OBJECT_NAME>KUIPER-00039</OBJECT_NAME><OBJECT_ID>2025-134A</OBJECT_ID><CENTER_NAME>EARTH</CENTER_NAME><REF_FRAME>TEME</REF_FRAME><TIME_SYSTEM>UTC</TIME_SYSTEM><MEAN_ELEMENT_THEORY>SGP4</MEAN_ELEMENT_THEORY></metadata><data><meanElements><EPOCH>2025-08-18T21:37:48.231552</EPOCH><MEAN_MOTION>15.35069348</MEAN_MOTION><ECCENTRICITY>.0009084</ECCENTRICITY><INCLINATION>51.8691</INCLINATION><RA_OF_ASC_NODE>59.0048</RA_OF_ASC_NODE><ARG_OF_PERICENTER>299.5598</ARG_OF_PERICENTER><MEAN_ANOMALY>60.4482</MEAN_ANOMALY></meanElements><tleParameters><EPHEMERIS_TYPE>0</EPHEMERIS_TYPE><CLASSIFICATION_TYPE>U</CLASSIFICATION_TYPE><NORAD_CAT_ID>64500</NORAD_CAT_ID><ELEMENT_SET_NO>999</ELEMENT_SET_NO><REV_AT_EPOCH>945</REV_AT_EPOCH><BSTAR>.10616E-2</BSTAR><MEAN_MOTION_DOT>.36515E-3</MEAN_MOTION_DOT><MEAN_MOTION_DDOT>0</MEAN_MOTION_DDOT></tleParameters></data></segment></body></omm>
<omm id="CCSDS_OMM_VERS" version="2.0">
<header><CREATION_DATE/><ORIGINATOR/></header><body><segment><metadata><OBJECT_NAME>KUIPER-00040</OBJECT_NAME><OBJECT_ID>2025-134B</OBJECT_ID><CENTER_NAME>EARTH</CENTER_NAME><REF_FRAME>TEME</REF_FRAME><TIME_SYSTEM>UTC</TIME_SYSTEM><MEAN_ELEMENT_THEORY>SGP4</MEAN_ELEMENT_THEORY></metadata><data><meanElements><EPOCH>2025-08-19T06:00:02.999808</EPOCH><MEAN_MOTION>15.04693497</MEAN_MOTION><ECCENTRICITY>.0015016</ECCENTRICITY><INCLINATION>51.8908</INCLINATION><RA_OF_ASC_NODE>61.2581</RA_OF_ASC_NODE><ARG_OF_PERICENTER>321.9930</ARG_OF_PERICENTER><MEAN_ANOMALY>348.4391</MEAN_ANOMALY></meanElements><tleParameters><EPHEMERIS_TYPE>0</EPHEMERIS_TYPE><CLASSIFICATION_TYPE>U</CLASSIFICATION_TYPE><NORAD_CAT_ID>64501</NORAD_CAT_ID><ELEMENT_SET_NO>999</ELEMENT_SET_NO><REV_AT_EPOCH>945</REV_AT_EPOCH><BSTAR>-.45692E-1</BSTAR><MEAN_MOTION_DOT>-.61393E-2</MEAN_MOTION_DOT><MEAN_MOTION_DDOT>0</MEAN_MOTION_DDOT></tleParameters></data></segment></body></omm>
<omm id="CCSDS_OMM_VERS" version="2.0">
<header><CREATION_DATE/><ORIGINATOR/></header><body><segment><metadata><OBJECT_NAME>KUIPER-00041</OBJECT_NAME><OBJECT_ID>2025-134C</OBJECT_ID><CENTER_NAME>EARTH</CENTER_NAME><REF_FRAME>TEME</REF_FRAME><TIME_SYSTEM>UTC</TIME_SYSTEM><MEAN_ELEMENT_THEORY>SGP4</MEAN_ELEMENT_THEORY></metadata><data><meanElements><EPOCH>2025-08-19T06:00:02.999808</EPOCH><MEAN_MOTION>14.98973210</MEAN_MOTION><ECCENTRICITY>.0012935</ECCENTRICITY><INCLINATION>51.8865</INCLINATION><RA_OF_ASC_NODE>61.9638</RA_OF_ASC_NODE><ARG_OF_PERICENTER>326.3105</ARG_OF_PERICENTER><MEAN_ANOMALY>311.8827</MEAN_ANOMALY></meanElements><tleParameters><EPHEMERIS_TYPE>0</EPHEMERIS_TYPE><CLASSIFICATION_TYPE>U</CLASSIFICATION_TYPE><NORAD_CAT_ID>64502</NORAD_CAT_ID><ELEMENT_SET_NO>999</ELEMENT_SET_NO><REV_AT_EPOCH>943</REV_AT_EPOCH><BSTAR>-.57627E-2</BSTAR><MEAN_MOTION_DOT>-.70239E-3</MEAN_MOTION_DOT><MEAN_MOTION_DDOT>0</MEAN_MOTION_DDOT></tleParameters></data></segment></body></omm>
<omm id="CCSDS_OMM_VERS" version="2.0">
<header><CREATION_DATE/><ORIGINATOR/></header><body><segment><metadata><OBJECT_NAME>KUIPER-00042</OBJECT_NAME><OBJECT_ID>2025-134D</OBJECT_ID><CENTER_NAME>EARTH</CENTER_NAME><REF_FRAME>TEME</REF_FRAME><TIME_SYSTEM>UTC</TIME_SYSTEM><MEAN_ELEMENT_THEORY>SGP4</MEAN_ELEMENT_THEORY></metadata><data><meanElements><EPOCH>2025-08-18T22:18:00.279360</EPOCH><MEAN_MOTION>15.14327735</MEAN_MOTION><ECCENTRICITY>.0014038</ECCENTRICITY><INCLINATION>51.8783</INCLINATION><RA_OF_ASC_NODE>61.3765</RA_OF_ASC_NODE><ARG_OF_PERICENTER>315.7378</ARG_OF_PERICENTER><MEAN_ANOMALY>44.2475</MEAN_ANOMALY></meanElements><tleParameters><EPHEMERIS_TYPE>0</EPHEMERIS_TYPE><CLASSIFICATION_TYPE>U</CLASSIFICATION_TYPE><NORAD_CAT_ID>64503</NORAD_CAT_ID><ELEMENT_SET_NO>999</ELEMENT_SET_NO><REV_AT_EPOCH>942</REV_AT_EPOCH><BSTAR>-.48914E-2</BSTAR><MEAN_MOTION_DOT>-.90174E-3</MEAN_MOTION_DOT><MEAN_MOTION_DDOT>0</MEAN_MOTION_DDOT></tleParameters></data></segment></body></omm>
<omm id="CCSDS_OMM_VERS" version="2.0">
<header><CREATION_DATE/><ORIGINATOR/></header><body><segment><metadata><OBJECT_NAME>KUIPER-00043</OBJECT_NAME><OBJECT_ID>2025-134E</OBJECT_ID><CENTER_NAME>EARTH</CENTER_NAME><REF_FRAME>TEME</REF_FRAME><TIME_SYSTEM>UTC</TIME_SYSTEM><MEAN_ELEMENT_THEORY>SGP4</MEAN_ELEMENT_THEORY></metadata><data><meanElements><EPOCH>2025-08-18T19:09:30.512448</EPOCH><MEAN_MOTION>15.29721045</MEAN_MOTION><ECCENTRICITY>.0008338</ECCENTRICITY><INCLINATION>51.8740</INCLINATION><RA_OF_ASC_NODE>59.8383</RA_OF_ASC_NODE><ARG_OF_PERICENTER>314.1151</ARG_OF_PERICENTER><MEAN_ANOMALY>45.9145</MEAN_ANOMALY></meanElements><tleParameters><EPHEMERIS_TYPE>0</EPHEMERIS_TYPE><CLASSIFICATION_TYPE>U</CLASSIFICATION_TYPE><NORAD_CAT_ID>64504</NORAD_CAT_ID><ELEMENT_SET_NO>999</ELEMENT_SET_NO><REV_AT_EPOCH>989</REV_AT_EPOCH><BSTAR>.73011E-3</BSTAR><MEAN_MOTION_DOT>.21044E-3</MEAN_MOTION_DOT><MEAN_MOTION_DDOT>0</MEAN_MOTION_DDOT></tleParameters></data></segment></body></omm>

</ndm>
